ONEWEB-0384             
1 49310U 21090AH  26043.25003472 -.00022288  00000+0 -54942-1 0  9995
2 49310  87.9229 299.4133 0001668  58.8810 108.9651 13.20822236  5260
ONEWEB-0385             
1 49311U 21090AJ  26043.21484185 -.00000109  00000+0 -29947-3 0  9993
2 49311  87.9205 299.3829 0001593  66.4489 293.6811 13.20772908213306
ONEWEB-0386             
1 49312U 21090AK  26043.23220336 -.00000066  00000+0 -19418-3 0  9996
2 49312  87.9213 299.3653 0001696  66.1173 294.0138 13.20771571213326
ONEWEB-0387             
1 49313U 21090AL  26043.21642879  .00000131  00000+0  28922-3 0  9996
2 49313  87.9200 299.4085 0001996  73.0660 287.0692 13.20770691213323
ONEWEB-0388             
1 49314U 21090AM  26043.23430742  .00000034  00000+0  52991-4 0  9999
2 49314  87.9248 329.8494 0001758  72.2296 287.9028 13.19724596209935
ONEWEB-0389             
1 50469U 21132A   26042.97996800 -.00000195  00000+0 -53581-3 0  9996
2 50469  87.9104  30.7403 0002122  75.0111 285.1255 13.17649221201595
ONEWEB-0390             
1 50470U 21132B   26042.98166681  .00000044  00000+0  79585-4 0  9999
2 50470  87.9103  30.7410 0002084  90.9783 269.1587 13.17649835201593
ONEWEB-0391             
1 50471U 21132C   26042.98335141  .00000056  00000+0  11140-3 0  9994
2 50471  87.9103  30.7498 0002660  75.9916 284.1511 13.17647846201595
ONEWEB-0392             
1 50472U 21132D   26043.01371369 -.00000243  00000+0 -65799-3 0  9991
2 50472  87.9115  30.7012 0002156  80.4372 279.7003 13.17649024201639
ONEWEB-0393             
1 50473U 21132E   26042.98687158 -.00000004  00000+0 -44328-4 0  9994
2 50473  87.9115  30.7306 0002002  80.8188 279.3170 13.17649243201628
ONEWEB-0394             
1 50474U 21132F   26043.28100102 -.00000058  00000+0 -18006-3 0  9990
2 50474  87.9229   0.2369 0001916  74.7367 285.3977 13.18686507205137
ONEWEB-0395             
1 50475U 21132G   26043.04033387 -.00000320  00000+0 -93783-3 0  9992
2 50475  87.8820  45.9703 0002122  89.0298 271.1073 13.11417661199312
ONEWEB-0396             
1 50476U 21132H   26043.27440030 -.00000072  00000+0 -21553-3 0  9995
2 50476  87.9235   0.2493 0001827  83.8469 276.2871 13.18687273205176
ONEWEB-0397             
1 50477U 21132J   26042.90985402 -.00000157  00000+0 -43056-3 0  9998
2 50477  87.9226   0.3223 0001805  73.9119 286.2212 13.18684229205108
ONEWEB-0398             
1 50478U 21132K   26043.00812578  .00000217  00000+0  57525-3 0  9995
2 50478  87.8830  45.9549 0002147  93.3579 266.7794 13.11415473199208
ONEWEB-0399             
1 50479U 21132L   26043.07086931  .00000526  00000+0  14476-2 0  9999
2 50479  87.8830  45.9523 0002017  74.1232 286.0118 13.11416177199207
ONEWEB-0400             
1 50480U 21132M   26043.26780765 -.00000076  00000+0 -22617-3 0  9997
2 50480  87.9231   0.2408 0001949  83.8430 276.2924 13.18686407205140
