[{"OBJECT_NAME":"ONEWEB-0384","OBJECT_ID":"2021-090AH","EPOCH":"2026-02-12T06:00:02.999808","MEAN_MOTION":13.20822236,"ECCENTRICITY":0.00016687,"INCLINATION":87.9229,"RA_OF_ASC_NODE":299.4133,"ARG_OF_PERICENTER":58.881,"MEAN_ANOMALY":108.9651,"EPHEMERIS_TYPE":0,"CLASSIFICATION_TYPE":"U","NORAD_CAT_ID":49310,"ELEMENT_SET_NO":999,"REV_AT_EPOCH":526,"BSTAR":-0.054942354,"MEAN_MOTION_DOT":-0.00022288,"MEAN_MOTION_DDOT":0},{"OBJECT_NAME":"ONEWEB-0385","OBJECT_ID":"2021-090AJ","EPOCH":"2026-02-12T05:09:22.335840","MEAN_MOTION":13.20772908,"ECCENTRICITY":0.00015937,"INCLINATION":87.9205,"RA_OF_ASC_NODE":299.3829,"ARG_OF_PERICENTER":66.4489,"MEAN_ANOMALY":293.6811,"EPHEMERIS_TYPE":0,"CLASSIFICATION_TYPE":"U","NORAD_CAT_ID":49311,"ELEMENT_SET_NO":999,"REV_AT_EPOCH":21330,"BSTAR":-0.00029947024,"MEAN_MOTION_DOT":-1.09e-6,"MEAN_MOTION_DDOT":0},{"OBJECT_NAME":"ONEWEB-0386","OBJECT_ID":"2021-090AK","EPOCH":"2026-02-12T05:34:22.370304","MEAN_MOTION":13.20771571,"ECCENTRICITY":0.00016965,"INCLINATION":87.9213,"RA_OF_ASC_NODE":299.3653,"ARG_OF_PERICENTER":66.1173,"MEAN_ANOMALY":294.0138,"EPHEMERIS_TYPE":0,"CLASSIFICATION_TYPE":"U","NORAD_CAT_ID":49312,"ELEMENT_SET_NO":999,"REV_AT_EPOCH":21332,"BSTAR":-0.00019417817,"MEAN_MOTION_DOT":-6.6e-7,"MEAN_MOTION_DDOT":0},{"OBJECT_NAME":"ONEWEB-0387","OBJECT_ID":"2021-090AL","EPOCH":"2026-02-12T05:11:39.447456","MEAN_MOTION":13.20770691,"ECCENTRICITY":0.00019961,"INCLINATION":87.92,"RA_OF_ASC_NODE":299.4085,"ARG_OF_PERICENTER":73.066,"MEAN_ANOMALY":287.0692,"EPHEMERIS_TYPE":0,"CLASSIFICATION_TYPE":"U","NORAD_CAT_ID":49313,"ELEMENT_SET_NO":999,"REV_AT_EPOCH":21332,"BSTAR":0.00028921876,"MEAN_MOTION_DOT":1.31e-6,"MEAN_MOTION_DDOT":0},{"OBJECT_NAME":"ONEWEB-0388","OBJECT_ID":"2021-090AM","EPOCH":"2026-02-12T05:37:24.161088","MEAN_MOTION":13.19724596,"ECCENTRICITY":0.00017586,"INCLINATION":87.9248,"RA_OF_ASC_NODE":329.8494,"ARG_OF_PERICENTER":72.2296,"MEAN_ANOMALY":287.9028,"EPHEMERIS_TYPE":0,"CLASSIFICATION_TYPE":"U","NORAD_CAT_ID":49314,"ELEMENT_SET_NO":999,"REV_AT_EPOCH":20993,"BSTAR":5.2991293e-5,"MEAN_MOTION_DOT":3.4e-7,"MEAN_MOTION_DDOT":0},{"OBJECT_NAME":"ONEWEB-0389","OBJECT_ID":"2021-132A","EPOCH":"2026-02-11T23:31:09.235200","MEAN_MOTION":13.17649221,"ECCENTRICITY":0.0002122,"INCLINATION":87.9104,"RA_OF_ASC_NODE":30.7403,"ARG_OF_PERICENTER":75.0111,"MEAN_ANOMALY":285.1255,"EPHEMERIS_TYPE":0,"CLASSIFICATION_TYPE":"U","NORAD_CAT_ID":50469,"ELEMENT_SET_NO":999,"REV_AT_EPOCH":20159,"BSTAR":-0.00053581,"MEAN_MOTION_DOT":-1.95e-6,"MEAN_MOTION_DDOT":0},{"OBJECT_NAME":"ONEWEB-0390","OBJECT_ID":"2021-132B","EPOCH":"2026-02-11T23:33:36.012384","MEAN_MOTION":13.17649835,"ECCENTRICITY":0.0002084,"INCLINATION":87.9103,"RA_OF_ASC_NODE":30.741,"ARG_OF_PERICENTER":90.9783,"MEAN_ANOMALY":269.1587,"EPHEMERIS_TYPE":0,"CLASSIFICATION_TYPE":"U","NORAD_CAT_ID":50470,"ELEMENT_SET_NO":999,"REV_AT_EPOCH":20159,"BSTAR":7.9585e-5,"MEAN_MOTION_DOT":4.4e-7,"MEAN_MOTION_DDOT":0},{"OBJECT_NAME":"ONEWEB-0391","OBJECT_ID":"2021-132C","EPOCH":"2026-02-11T23:36:01.561824","MEAN_MOTION":13.17647846,"ECCENTRICITY":0.000266,"INCLINATION":87.9103,"RA_OF_ASC_NODE":30.7498,"ARG_OF_PERICENTER":75.9916,"MEAN_ANOMALY":284.1511,"EPHEMERIS_TYPE":0,"CLASSIFICATION_TYPE":"U","NORAD_CAT_ID":50471,"ELEMENT_SET_NO":999,"REV_AT_EPOCH":20159,"BSTAR":0.0001114,"MEAN_MOTION_DOT":5.6e-7,"MEAN_MOTION_DDOT":0},{"OBJECT_NAME":"ONEWEB-0392","OBJECT_ID":"2021-132D","EPOCH":"2026-02-12T00:19:44.862816","MEAN_MOTION":13.17649024,"ECCENTRICITY":0.00021564,"INCLINATION":87.9115,"RA_OF_ASC_NODE":30.7012,"ARG_OF_PERICENTER":80.4372,"MEAN_ANOMALY":279.7003,"EPHEMERIS_TYPE":0,"CLASSIFICATION_TYPE":"U","NORAD_CAT_ID":50472,"ELEMENT_SET_NO":999,"REV_AT_EPOCH":20163,"BSTAR":-0.00065798721,"MEAN_MOTION_DOT":-2.43e-6,"MEAN_MOTION_DDOT":0},{"OBJECT_NAME":"ONEWEB-0393","OBJECT_ID":"2021-132E","EPOCH":"2026-02-11T23:41:05.704512","MEAN_MOTION":13.17649243,"ECCENTRICITY":0.0002002,"INCLINATION":87.9115,"RA_OF_ASC_NODE":30.7306,"ARG_OF_PERICENTER":80.8188,"MEAN_ANOMALY":279.317,"EPHEMERIS_TYPE":0,"CLASSIFICATION_TYPE":"U","NORAD_CAT_ID":50473,"ELEMENT_SET_NO":999,"REV_AT_EPOCH":20162,"BSTAR":-4.4328e-5,"MEAN_MOTION_DOT":-4.0e-8,"MEAN_MOTION_DDOT":0},{"OBJECT_NAME":"ONEWEB-0394","OBJECT_ID":"2021-132F","EPOCH":"2026-02-12T06:44:38.488128","MEAN_MOTION":13.18686507,"ECCENTRICITY":0.00019161,"INCLINATION":87.9229,"RA_OF_ASC_NODE":0.2369,"ARG_OF_PERICENTER":74.7367,"MEAN_ANOMALY":285.3977,"EPHEMERIS_TYPE":0,"CLASSIFICATION_TYPE":"U","NORAD_CAT_ID":50474,"ELEMENT_SET_NO":999,"REV_AT_EPOCH":20513,"BSTAR":-0.00018005854,"MEAN_MOTION_DOT":-5.8e-7,"MEAN_MOTION_DDOT":0},{"OBJECT_NAME":"ONEWEB-0395","OBJECT_ID":"2021-132G","EPOCH":"2026-02-12T00:58:04.846368","MEAN_MOTION":13.11417661,"ECCENTRICITY":0.00021227,"INCLINATION":87.882,"RA_OF_ASC_NODE":45.9703,"ARG_OF_PERICENTER":89.0298,"MEAN_ANOMALY":271.1073,"EPHEMERIS_TYPE":0,"CLASSIFICATION_TYPE":"U","NORAD_CAT_ID":50475,"ELEMENT_SET_NO":999,"REV_AT_EPOCH":19931,"BSTAR":-0.00093782735,"MEAN_MOTION_DOT":-3.2e-6,"MEAN_MOTION_DDOT":0},{"OBJECT_NAME":"ONEWEB-0396","OBJECT_ID":"2021-132H","EPOCH":"2026-02-12T06:35:08.185920","MEAN_MOTION":13.18687273,"ECCENTRICITY":0.00018277,"INCLINATION":87.9235,"RA_OF_ASC_NODE":0.2493,"ARG_OF_PERICENTER":83.8469,"MEAN_ANOMALY":276.2871,"EPHEMERIS_TYPE":0,"CLASSIFICATION_TYPE":"U","NORAD_CAT_ID":50476,"ELEMENT_SET_NO":999,"REV_AT_EPOCH":20517,"BSTAR":-0.00021553173,"MEAN_MOTION_DOT":-7.2e-7,"MEAN_MOTION_DDOT":0},{"OBJECT_NAME":"ONEWEB-0397","OBJECT_ID":"2021-132J","EPOCH":"2026-02-11T21:50:11.387328","MEAN_MOTION":13.18684229,"ECCENTRICITY":0.0001805,"INCLINATION":87.9226,"RA_OF_ASC_NODE":0.3223,"ARG_OF_PERICENTER":73.9119,"MEAN_ANOMALY":286.2212,"EPHEMERIS_TYPE":0,"CLASSIFICATION_TYPE":"U","NORAD_CAT_ID":50477,"ELEMENT_SET_NO":999,"REV_AT_EPOCH":20510,"BSTAR":-0.00043056,"MEAN_MOTION_DOT":-1.57e-6,"MEAN_MOTION_DDOT":0},{"OBJECT_NAME":"ONEWEB-0398","OBJECT_ID":"2021-132K","EPOCH":"2026-02-12T00:11:42.067392","MEAN_MOTION":13.11415473,"ECCENTRICITY":0.00021471,"INCLINATION":87.883,"RA_OF_ASC_NODE":45.9549,"ARG_OF_PERICENTER":93.3579,"MEAN_ANOMALY":266.7794,"EPHEMERIS_TYPE":0,"CLASSIFICATION_TYPE":"U","NORAD_CAT_ID":50478,"ELEMENT_SET_NO":999,"REV_AT_EPOCH":19920,"BSTAR":0.0005752471,"MEAN_MOTION_DOT":2.17e-6,"MEAN_MOTION_DDOT":0},{"OBJECT_NAME":"ONEWEB-0399","OBJECT_ID":"2021-132L","EPOCH":"2026-02-12T01:42:03.108384","MEAN_MOTION":13.11416177,"ECCENTRICITY":0.0002017,"INCLINATION":87.883,"RA_OF_ASC_NODE":45.9523,"ARG_OF_PERICENTER":74.1232,"MEAN_ANOMALY":286.0118,"EPHEMERIS_TYPE":0,"CLASSIFICATION_TYPE":"U","NORAD_CAT_ID":50479,"ELEMENT_SET_NO":999,"REV_AT_EPOCH":19920,"BSTAR":0.0014475865,"MEAN_MOTION_DOT":5.26e-6,"MEAN_MOTION_DDOT":0},{"OBJECT_NAME":"ONEWEB-0400","OBJECT_ID":"2021-132M","EPOCH":"2026-02-12T06:25:38.580960","MEAN_MOTION":13.18686407,"ECCENTRICITY":0.00019493,"INCLINATION":87.9231,"RA_OF_ASC_NODE":0.2408,"ARG_OF_PERICENTER":83.843,"MEAN_ANOMALY":276.2924,"EPHEMERIS_TYPE":0,"CLASSIFICATION_TYPE":"U","NORAD_CAT_ID":50480,"ELEMENT_SET_NO":999,"REV_AT_EPOCH":20514,"BSTAR":-0.00022616935,"MEAN_MOTION_DOT":-7.6e-7,"MEAN_MOTION_DDOT":0}]
